[{"OBJECT_NAME":"ONEWEB-0082","OBJECT_ID":"2020-020AE","EPOCH":"2026-03-09T22:02:39.721920","MEAN_MOTION":13.11415145,"ECCENTRICITY":0.00016559,"INCLINATION":87.8874,"RA_OF_ASC_NODE":40.7877,"ARG_OF_PERICENTER":89.0746,"MEAN_ANOMALY":271.0572,"EPHEMERIS_TYPE":0,"CLASSIFICATION_TYPE":"U","NORAD_CAT_ID":45452,"ELEMENT_SET_NO":999,"REV_AT_EPOCH":28966,"BSTAR":0.00098987067,"MEAN_MOTION_DOT":3.64e-6,"MEAN_MOTION_DDOT":0},{"OBJECT_NAME":"UNKNOWN","OBJECT_ID":"","EPOCH":"2026-03-06T03:14:31.265376","MEAN_MOTION":12.81426946,"ECCENTRICITY":0.0149171,"INCLINATION":56.4354,"RA_OF_ASC_NODE":337.3034,"ARG_OF_PERICENTER":254.5569,"MEAN_ANOMALY":103.8838,"EPHEMERIS_TYPE":0,"CLASSIFICATION_TYPE":"U","NORAD_CAT_ID":81605,"ELEMENT_SET_NO":999,"REV_AT_EPOCH":19689,"BSTAR":-0.006199,"MEAN_MOTION_DOT":-1.613e-5,"MEAN_MOTION_DDOT":0}]
